{
    "links": {
        "self": "http://www.neowsapp.com/rest/v1/neo/3655552?api_key=iIulBulltgU6a56xZRHN4H3l9WmuAYTsLGpBGhQ2"
    },
    "id": "3655552",
    "neo_reference_id": "3655552",
    "name": "(2013 YD38)",
    "designation": "2013 YD38",
    "nasa_jpl_url": "http://ssd.jpl.nasa.gov/sbdb.cgi?sstr=3655552",
    "absolute_magnitude_h": 22.8,
    "estimated_diameter": {
        "kilometers": {
            "estimated_diameter_min": 0.0732073989,
            "estimated_diameter_max": 0.1636967205
        },
        "meters": {
            "estimated_diameter_min": 73.2073989347,
            "estimated_diameter_max": 163.696720474
        },
        "miles": {
            "estimated_diameter_min": 0.0454889547,
            "estimated_diameter_max": 0.1017163949
        },
        "feet": {
            "estimated_diameter_min": 240.181762721,
            "estimated_diameter_max": 537.0627483999
        }
    },
    "is_potentially_hazardous_asteroid": false,
    "close_approach_data": [
        {
            "close_approach_date": "2013-12-29",
            "close_approach_date_full": "2013-Dec-29 04:10",
            "epoch_date_close_approach": 1388290200000,
            "relative_velocity": {
                "kilometers_per_second": "15.6310905704",
                "kilometers_per_hour": "56271.9260534562",
                "miles_per_hour": "34965.1864969378"
            },
            "miss_distance": {
                "astronomical": "0.0666032421",
                "lunar": "25.9086611769",
                "kilometers": "9963703.153254327",
                "miles": "6191158.0516186326"
            },
            "orbiting_body": "Earth"
        }
    ],
    "orbital_data": {
        "orbit_id": "9",
        "orbit_determination_date": "2018-02-10 07:05:43",
        "first_observation_date": "2013-12-28",
        "last_observation_date": "2014-01-10",
        "data_arc_in_days": 13,
        "observations_used": 87,
        "orbit_uncertainty": "8",
        "minimum_orbit_intersection": ".0472442",
        "jupiter_tisserand_invariant": "3.934",
        "epoch_osculation": "2456657.5",
        "eccentricity": ".418400309977334",
        "semi_major_axis": "1.737184999720136",
        "inclination": "26.54154304559383",
        "ascending_node_longitude": "93.69615061781924",
        "orbital_period": "836.3104680299277",
        "perihelion_distance": "1.010346257349256",
        "perihelion_argument": "21.82138810763303",
        "aphelion_distance": "2.464023742091016",
        "perihelion_time": "2456673.775761117255",
        "mean_anomaly": "352.9939009181431",
        "mean_motion": ".4304621474463204",
        "equinox": "J2000",
        "orbit_class": {
            "orbit_class_type": "APO",
            "orbit_class_description": "Near-Earth asteroid orbits which cross the Earth’s orbit similar to that of 1862 Apollo",
            "orbit_class_range": "a (semi-major axis) > 1.0 AU; q (perihelion) < 1.017 AU"
        }
    },
    "is_sentry_object": false
}